STARLINK-36591          
1 67576U 26016R   26158.71398552  .00024665  00000+0  76392-3 0  9990
2 67576  97.2816 218.8985 0000736  28.7774 331.3509 15.33441916 20663
STARLINK-36590          
1 67577U 26016S   26158.72758191  .00033515  00000+0  10358-2 0  9994
2 67577  97.2811 218.8798 0000489  41.4531 318.6749 15.33447675 20661
STARLINK-36613          
1 67578U 26016T   26158.68679508  .00019453  00000+0  60350-3 0  9997
2 67578  97.2843 218.7815 0000360 246.5822 113.5383 15.33437097 20657
STARLINK-36571          
1 67579U 26016U   26158.73029438  .00014650  00000+0  45499-3 0  9996
2 67579  97.2833 218.8759 0000763 272.0202  88.0953 15.33461227 20660
STARLINK-36612          
1 67580U 26016V   26158.69495550  .00029089  00000+0  89992-3 0  9993
2 67580  97.2813 218.9215 0003229  66.4002 293.7579 15.33439655 20660
STARLINK-36632          
1 67581U 26016W   26158.71942515  .00027651  00000+0  85554-3 0  9998
2 67581  97.2810 218.8869 0001572  86.7146 273.4276 15.33450291 20663
STARLINK-36609          
1 67582U 26016X   26158.79825829  .00029390  00000+0  90836-3 0  9996
2 67582  97.2843 218.9374 0000342 136.4270 223.7000 15.33472743 20677
STARLINK-36577          
1 67583U 26016Y   26158.69222913  .00015125  00000+0  46994-3 0  9998
2 67583  97.2833 218.9261 0001210 123.9276 236.2082 15.33441840 20666
STARLINK-36419          
1 67584U 26016Z   26158.70313097  .00033592  00000+0  10388-2 0  9990
2 67584  97.2883 218.9137 0000666 105.4885 254.6431 15.33427340 20660
STARLINK-36560          
1 67585U 26016AA  26158.68407247  .00017185  00000+0  53354-3 0  9990
2 67585  97.2833 218.7871 0000627 186.3136 173.8099 15.33438001 20650
NAVSTAR 85 (USA 581)    
1 67588U 26017A   26156.23183609  .00000004  00000+0  00000+0 0  9994
2 67588  55.0812  89.2351 0022663 257.5579 102.1794  2.00571538431377
STARLINK-36641          
1 67589U 26018A   26158.68117080  .00026629  00000+0  82433-3 0  9992
2 67589  97.2821 223.5837 0000760  99.3180 260.8149 15.33443057 21120
STARLINK-36376          
1 67590U 26018B   26158.72738308  .00026695  00000+0  82637-3 0  9990
2 67590  97.2797 223.6687 0000804  92.5791 267.5544 15.33442208 21131
STARLINK-36391          
1 67591U 26018C   26158.69476008  .00016074  00000+0  49937-3 0  9999
2 67591  97.2825 223.5717 0001921 121.5673 238.5758 15.33430009 21120
STARLINK-36603          
1 67592U 26018D   26158.72195117  .00011505  00000+0  35830-3 0  9994
2 67592  97.2848 223.6833 0000294  86.6573 273.4703 15.33432836 21137
STARLINK-36634          
1 67593U 26018E   26158.78177118  .00022178  00000+0  68732-3 0  9997
2 67593  97.2847 223.7557 0000418  89.5045 270.6246 15.33443044 21140
STARLINK-36638          
1 67594U 26018F   26158.68932659  .00024955  00000+0  77293-3 0  9993
2 67594  97.2847 223.5737 0000557 169.9871 190.1383 15.33438047 21126
STARLINK-36628          
1 67595U 26018G   26158.73283058  .00035958  00000+0  11108-2 0  9999
2 67595  97.2820 223.6653 0000642 104.3045 255.8269 15.33446417 21130
STARLINK-36629          
1 67596U 26018H   26158.67571488  .00026212  00000+0  81124-3 0  9999
2 67596  97.2856 223.5966 0001218 338.8188  21.3004 15.33452971 21122
STARLINK-36384          
1 67597U 26018J   26158.70019455  .00004963  00000+0  15598-3 0  9996
2 67597  97.2831 223.7132 0000363  81.5507 278.5777 15.33438065 21132
STARLINK-36358          
1 67598U 26018K   26158.73555025  .00035562  00000+0  10986-2 0  9992
2 67598  97.2822 223.6629 0000355 127.9970 232.1304 15.33446572 21137
STARLINK-36582          
1 67599U 26018L   26158.71923441  .00017420  00000+0  54079-3 0  9997
2 67599  97.2837 223.6871 0000711 114.8489 245.2827 15.33438689 21189
STARLINK-36640          
1 67600U 26018M   26158.67300869  .00025884  00000+0  80206-3 0  9992
2 67600  97.2835 223.5979 0000139  19.1086 341.0162 15.33417411 21123
STARLINK-36635          
1 67601U 26018N   26158.70563691  .00006434  00000+0  20150-3 0  9993
2 67601  97.2838 223.7044 0000167 315.2789  44.8441 15.33438434 21130
STARLINK-36631          
1 67602U 26018P   26158.69748094  .00010528  00000+0  32792-3 0  9998
2 67602  97.2816 223.7151 0000544  69.1110 291.0191 15.33451156 21132
STARLINK-36626          
1 67603U 26018Q   26158.71379161 -.00000876  00000+0 -24828-4 0  9996
2 67603  97.2838 223.6959 0000245  32.8067 327.3191 15.33435356 21135
STARLINK-36605          
1 67604U 26018R   26158.73010711  .00031837  00000+0  98513-3 0  9992
2 67604  97.2833 223.6722 0001373  93.7303 266.4097 15.33419190 21137
STARLINK-36281          
1 67605U 26018S   26158.68389609  .00024329  00000+0  75302-3 0  9991
2 67605  97.2850 223.5832 0000817 233.2970 126.8197 15.33465883 21120
STARLINK-35843          
1 67606U 26018T   26158.72468087  .00024060  00000+0  74518-3 0  9995
2 67606  97.2841 223.6817 0000883 117.1888 242.9445 15.33447364 21137
STARLINK-36351          
1 67607U 26018U   26158.71107762  .00026994  00000+0  83563-3 0  9993
2 67607  97.2811 223.6959 0001199  22.3673 337.7621 15.33438764 21135
