OBJECT_NAME,OBJECT_ID,EPOCH,MEAN_MOTION,ECCENTRICITY,INCLINATION,RA_OF_ASC_NODE,ARG_OF_PERICENTER,MEAN_ANOMALY,EPHEMERIS_TYPE,CLASSIFICATION_TYPE,NORAD_CAT_ID,ELEMENT_SET_NO,REV_AT_EPOCH,BSTAR,MEAN_MOTION_DOT,MEAN_MOTION_DDOT
STARLINK-36591,2026-016R,2026-06-07T17:08:08.348928,15.33441916,.0000736,97.2816,218.8985,28.7774,331.3509,0,U,67576,999,2066,.76392E-3,.24665E-3,0
STARLINK-36590,2026-016S,2026-06-07T17:27:43.077024,15.33447675,.0000489,97.2811,218.8798,41.4531,318.6749,0,U,67577,999,2066,.10358E-2,.33515E-3,0
STARLINK-36613,2026-016T,2026-06-07T16:28:59.094912,15.33437097,.000036,97.2843,218.7815,246.5822,113.5383,0,U,67578,999,2065,.6035E-3,.19453E-3,0
STARLINK-36571,2026-016U,2026-06-07T17:31:37.434432,15.33461227,.0000763,97.2833,218.8759,272.0202,88.0953,0,U,67579,999,2066,.45499E-3,.1465E-3,0
STARLINK-36612,2026-016V,2026-06-07T16:40:44.155200,15.33439655,.0003229,97.2813,218.9215,66.4002,293.7579,0,U,67580,999,2066,.89992E-3,.29089E-3,0
STARLINK-36632,2026-016W,2026-06-07T17:15:58.332960,15.33450291,.0001572,97.2810,218.8869,86.7146,273.4276,0,U,67581,999,2066,.85554E-3,.27651E-3,0
STARLINK-36609,2026-016X,2026-06-07T19:09:29.516256,15.33472743,.0000342,97.2843,218.9374,136.4270,223.7000,0,U,67582,999,2067,.90836E-3,.2939E-3,0
STARLINK-36577,2026-016Y,2026-06-07T16:36:48.596832,15.33441840,.000121,97.2833,218.9261,123.9276,236.2082,0,U,67583,999,2066,.46994E-3,.15125E-3,0
STARLINK-36419,2026-016Z,2026-06-07T16:52:30.515808,15.33427340,.0000666,97.2883,218.9137,105.4885,254.6431,0,U,67584,999,2066,.10388E-2,.33592E-3,0
STARLINK-36560,2026-016AA,2026-06-07T16:25:03.861408,15.33438001,.0000627,97.2833,218.7871,186.3136,173.8099,0,U,67585,999,2065,.53354E-3,.17185E-3,0
NAVSTAR 85 (USA 581),2026-017A,2026-06-05T05:33:50.638176,2.00571538,.00226637,55.0812,89.2351,257.5579,102.1794,0,U,67588,999,43137,0,.4E-7,0
STARLINK-36641,2026-018A,2026-06-07T16:20:53.157120,15.33443057,.000076,97.2821,223.5837,99.3180,260.8149,0,U,67589,999,2112,.82433E-3,.26629E-3,0
STARLINK-36376,2026-018B,2026-06-07T17:27:25.898112,15.33442208,.0000804,97.2797,223.6687,92.5791,267.5544,0,U,67590,999,2113,.82637E-3,.26695E-3,0
STARLINK-36391,2026-018C,2026-06-07T16:40:27.270912,15.33430009,.0001921,97.2825,223.5717,121.5673,238.5758,0,U,67591,999,2112,.49937E-3,.16074E-3,0
STARLINK-36603,2026-018D,2026-06-07T17:19:36.581088,15.33432836,.0000294,97.2848,223.6833,86.6573,273.4703,0,U,67592,999,2113,.3583E-3,.11505E-3,0
STARLINK-36634,2026-018E,2026-06-07T18:45:45.029952,15.33443044,.0000418,97.2847,223.7557,89.5045,270.6246,0,U,67593,999,2114,.68732E-3,.22178E-3,0
STARLINK-36638,2026-018F,2026-06-07T16:32:37.817376,15.33438047,.0000557,97.2847,223.5737,169.9871,190.1383,0,U,67594,999,2112,.77293E-3,.24955E-3,0
STARLINK-36628,2026-018G,2026-06-07T17:35:16.562112,15.33446417,.0000642,97.2820,223.6653,104.3045,255.8269,0,U,67595,999,2113,.11108E-2,.35958E-3,0
STARLINK-36629,2026-018H,2026-06-07T16:13:01.765632,15.33452971,.0001218,97.2856,223.5966,338.8188,21.3004,0,U,67596,999,2112,.81124E-3,.26212E-3,0
STARLINK-36384,2026-018J,2026-06-07T16:48:16.809120,15.33438065,.0000363,97.2831,223.7132,81.5507,278.5777,0,U,67597,999,2113,.15598E-3,.4963E-4,0
STARLINK-36358,2026-018K,2026-06-07T17:39:11.541600,15.33446572,.0000355,97.2822,223.6629,127.9970,232.1304,0,U,67598,999,2113,.10986E-2,.35562E-3,0
STARLINK-36582,2026-018L,2026-06-07T17:15:41.853024,15.33438689,.0000711,97.2837,223.6871,114.8489,245.2827,0,U,67599,999,2118,.54079E-3,.1742E-3,0
STARLINK-36640,2026-018M,2026-06-07T16:09:07.950816,15.33417411,.0000139,97.2835,223.5979,19.1086,341.0162,0,U,67600,999,2112,.80206E-3,.25884E-3,0
STARLINK-36635,2026-018N,2026-06-07T16:56:07.029024,15.33438434,.0000167,97.2838,223.7044,315.2789,44.8441,0,U,67601,999,2113,.2015E-3,.6434E-4,0
STARLINK-36631,2026-018P,2026-06-07T16:44:22.353216,15.33451156,.0000544,97.2816,223.7151,69.1110,291.0191,0,U,67602,999,2113,.32792E-3,.10528E-3,0
STARLINK-36626,2026-018Q,2026-06-07T17:07:51.595104,15.33435356,.0000245,97.2838,223.6959,32.8067,327.3191,0,U,67603,999,2113,-.24828E-4,-.876E-5,0
STARLINK-36605,2026-018R,2026-06-07T17:31:21.254304,15.33419190,.0001373,97.2833,223.6722,93.7303,266.4097,0,U,67604,999,2113,.98513E-3,.31837E-3,0
STARLINK-36281,2026-018S,2026-06-07T16:24:48.622176,15.33465883,.0000817,97.2850,223.5832,233.2970,126.8197,0,U,67605,999,2112,.75302E-3,.24329E-3,0
STARLINK-35843,2026-018T,2026-06-07T17:23:32.427168,15.33447364,.0000883,97.2841,223.6817,117.1888,242.9445,0,U,67606,999,2113,.74518E-3,.2406E-3,0
STARLINK-36351,2026-018U,2026-06-07T17:03:57.106368,15.33438764,.0001199,97.2811,223.6959,22.3673,337.7621,0,U,67607,999,2113,.83563E-3,.26994E-3,0
